[{"OBJECT_NAME":"STARLINK-2535","OBJECT_ID":"2021-036V","EPOCH":"2026-03-09T06:36:55.569888","MEAN_MOTION":15.30191983,"ECCENTRICITY":0.00015185,"INCLINATION":53.1607,"RA_OF_ASC_NODE":77.4642,"ARG_OF_PERICENTER":97.2274,"MEAN_ANOMALY":262.89,"EPHEMERIS_TYPE":0,"CLASSIFICATION_TYPE":"U","NORAD_CAT_ID":48295,"ELEMENT_SET_NO":999,"REV_AT_EPOCH":26834,"BSTAR":-1.473769e-6,"MEAN_MOTION_DOT":-4.03e-6,"MEAN_MOTION_DDOT":0},{"OBJECT_NAME":"HORS 2","OBJECT_ID":"2023-091AG","EPOCH":"2026-03-09T22:11:34.810944","MEAN_MOTION":15.2928008,"ECCENTRICITY":0.00098173,"INCLINATION":97.5195,"RA_OF_ASC_NODE":134.7443,"ARG_OF_PERICENTER":79.3164,"MEAN_ANOMALY":280.9181,"EPHEMERIS_TYPE":0,"CLASSIFICATION_TYPE":"U","NORAD_CAT_ID":57196,"ELEMENT_SET_NO":999,"REV_AT_EPOCH":14934,"BSTAR":0.00059338338,"MEAN_MOTION_DOT":0.00016821,"MEAN_MOTION_DDOT":0}]
